NORAD_CAT_ID,OBJECT_NAME,OBJECT_TYPE,EPOCH,MEAN_MOTION,ECCENTRICITY,INCLINATION,RA_OF_ASC_NODE,ARG_OF_PERICENTER,MEAN_ANOMALY,BSTAR,MEAN_MOTION_DOT,MEAN_MOTION_DDOT,TLE_LINE0,TLE_LINE1,TLE_LINE2,SEMIMAJOR_AXIS,PERIOD,APOGEE,PERIGEE,DECAYED
54072.0,STARLINK-5144,PAYLOAD,2024-05-27 22:05:06,15.08846618,0.0001464,53.2191,25.2755,116.0665,244.0478,2.8437e-05,1.65e-06,0.0,0 STARLINK-5144,1 54072U 22136X   24148.92021260  .00000165  00000-0  28437-4 0  9993,2 54072  53.2191  25.2755 0001464 116.0665 244.0478 15.08846618 88605,6917.86,95.437,540.738,538.712,0.0
54072.0,STARLINK-5144,PAYLOAD,2024-05-28 09:12:47,15.08849125,0.0001492,53.2191,23.1929,125.496,234.6171,5.704e-05,6.2e-06,0.0,0 STARLINK-5144,1 54072U 22136X   24149.38388684  .00000620  00000-0  57040-4 0  9998,2 54072  53.2191  23.1929 0001492 125.4960 234.6171 15.08849125 88676,6917.852,95.437,540.75,538.685,0.0
54072.0,STARLINK-5144,PAYLOAD,2024-05-28 20:20:30,15.08845548,0.0001483,53.2191,21.1111,113.5409,246.5739,-3.6052e-05,-8.62e-06,0.0,0 STARLINK-5144,1 54072U 22136X   24149.84757295 -.00000862  00000-0 -36052-4 0  9997,2 54072  53.2191  21.1111 0001483 113.5409 246.5739 15.08845548 88748,6917.863,95.437,540.754,538.703,0.0
54072.0,STARLINK-5144,PAYLOAD,2024-05-29 01:06:39,15.08846459,0.0001256,53.2179,20.2188,104.3151,255.7981,-1.1229e-05,-4.67e-06,0.0,0 STARLINK-5144,1 54072U 22136X   24150.04629106 -.00000467  00000-0 -11229-4 0  9990,2 54072  53.2179  20.2188 0001256 104.3151 255.7981 15.08846459 89258,6917.861,95.437,540.595,538.857,0.0
54072.0,STARLINK-5144,PAYLOAD,2024-05-29 20:11:17,15.08831772,0.0001504,53.2186,16.6474,125.1173,234.996,0.00019761,2.858e-05,0.0,0 STARLINK-5144,1 54072U 22136X   24150.84117308  .00002858  00000-0  19761-3 0  9996,2 54072  53.2186  16.6474 0001504 125.1173 234.9960 15.08831772 89375,6917.906,95.438,540.811,538.73,0.0
54072.0,STARLINK-5144,PAYLOAD,2024-05-29 21:46:42,15.08763867,0.0001869,53.2189,16.3511,111.8152,248.3039,0.0011421,0.00017897,0.0,0 STARLINK-5144,1 54072U 22136X   24150.90743133  .00017897  00000-0  11421-2 0  9997,2 54072  53.2189  16.3511 0001869 111.8152 248.3039 15.08763867 88903,6918.113,95.442,541.271,538.685,0.0
54072.0,STARLINK-5144,PAYLOAD,2024-05-30 00:57:26,15.08833144,0.0001567,53.219,15.7565,122.946,237.1683,0.00017235,2.456e-05,0.0,0 STARLINK-5144,1 54072U 22136X   24151.03989361  .00002456  00000-0  17235-3 0  9992,2 54072  53.2190  15.7565 0001567 122.9460 237.1683 15.08833144 88926,6917.901,95.438,540.85,538.682,0.0
54072.0,STARLINK-5144,PAYLOAD,2024-05-30 20:02:04,15.08839259,0.0001343,53.2191,12.1887,113.9767,246.1366,9.9722e-05,1.299e-05,0.0,0 STARLINK-5144,1 54072U 22136X   24151.83477093  .00001299  00000-0  99722-4 0  9990,2 54072  53.2191  12.1887 0001343 113.9767 246.1366 15.08839259 89042,6917.883,95.438,540.677,538.819,0.0
54072.0,STARLINK-5144,PAYLOAD,2024-05-31 13:31:18,15.08841901,0.0001455,53.2191,8.919,104.5665,255.5488,4.5715e-06,-2.15e-06,0.0,0 STARLINK-5144,1 54072U 22136X   24152.56341267 -.00000215  00000-0  45715-5 0  9996,2 54072  53.2191   8.9190 0001455 104.5665 255.5488 15.08841901 89630,6917.875,95.437,540.746,538.733,0.0
54072.0,STARLINK-5144,PAYLOAD,2024-05-31 21:28:14,15.08843909,0.0001028,53.2179,7.4364,104.9392,255.1714,3.2943e-05,2.37e-06,0.0,0 STARLINK-5144,1 54072U 22136X   24152.89461021  .00000237  00000-0  32943-4 0  9994,2 54072  53.2179   7.4364 0001028 104.9392 255.1714 15.08843909 89201,6917.868,95.437,540.445,539.022,0.0
54072.0,STARLINK-5144,PAYLOAD,2024-06-01 07:00:33,15.08832805,0.0001079,53.2179,5.6522,97.5896,262.5219,0.00019683,2.846e-05,0.0,0 STARLINK-5144,1 54072U 22136X   24153.29205300  .00002846  00000-0  19683-3 0  9998,2 54072  53.2179   5.6522 0001079  97.5896 262.5219 15.08832805 89260,6917.902,95.438,540.514,539.021,0.0
54072.0,STARLINK-5144,PAYLOAD,2024-06-01 21:19:02,15.0883186,0.0001119,53.2182,2.9765,96.4161,263.6959,-4.6287e-05,-1.024e-05,0.0,0 STARLINK-5144,1 54072U 22136X   24153.88822309 -.00001024  00000-0 -46287-4 0  9997,2 54072  53.2182   2.9765 0001119  96.4161 263.6959 15.08831860 89837,6917.905,95.438,540.544,538.996,0.0
54072.0,STARLINK-5144,PAYLOAD,2024-06-02 22:45:12,15.08840242,0.0001108,53.2178,358.2174,91.4956,268.6163,3.7813e-05,3.14e-06,0.0,0 STARLINK-5144,1 54072U 22136X   24154.94805850  .00000314  00000-0  37813-4 0  9991,2 54072  53.2178 358.2174 0001108  91.4956 268.6163 15.08840242 89991,6917.88,95.438,540.511,538.978,0.0
54072.0,STARLINK-5144,PAYLOAD,2024-06-03 06:42:07,15.08844158,0.0001154,53.218,356.7309,92.4093,267.7031,2.4846e-05,1.08e-06,0.0,0 STARLINK-5144,1 54072U 22136X   24155.27925714  .00000108  00000-0  24846-4 0  9993,2 54072  53.2180 356.7309 0001154  92.4093 267.7031 15.08844158 89568,6917.868,95.437,540.531,538.934,0.0
54072.0,STARLINK-5144,PAYLOAD,2024-06-03 22:35:58,15.08849669,0.0001243,53.2186,353.7557,87.5643,272.5492,0.00017926,2.567e-05,0.0,0 STARLINK-5144,1 54072U 22136X   24155.94165111  .00002567  00000-0  17926-3 0  9995,2 54072  53.2186 353.7557 0001243  87.5643 272.5492 15.08849669 89669,6917.851,95.437,540.576,538.856,0.0
54072.0,STARLINK-5144,PAYLOAD,2024-06-04 06:32:54,15.08841789,0.0001275,53.2178,352.2681,86.0083,274.1055,9.0178e-05,1.148e-05,0.0,0 STARLINK-5144,1 54072U 22136X   24156.27285791  .00001148  00000-0  90178-4 0  9994,2 54072  53.2178 352.2681 0001275  86.0083 274.1055 15.08841789 90197,6917.875,95.437,540.622,538.858,0.0
54072.0,STARLINK-5144,PAYLOAD,2024-06-04 19:16:00,15.0883284,0.0001379,53.214,349.8894,88.8433,271.2717,0.00018461,2.651e-05,0.0,0 STARLINK-5144,1 54072U 22136X   24156.80277925  .00002651  00000-0  18461-3 0  9997,2 54072  53.2140 349.8894 0001379  88.8433 271.2717 15.08832840 89793,6917.902,95.438,540.721,538.813,0.0
54072.0,STARLINK-5144,PAYLOAD,2024-06-05 12:45:14,15.0884208,0.0001728,53.2127,346.617,95.4608,264.6581,-3.374e-05,-8.25e-06,0.0,0 STARLINK-5144,1 54072U 22136X   24157.53142059 -.00000825  00000-0 -33740-4 0  9998,2 54072  53.2127 346.6170 0001728  95.4608 264.6581 15.08842080 90385,6917.874,95.437,540.934,538.544,0.0
54072.0,STARLINK-5144,PAYLOAD,2024-06-05 22:17:33,15.08836469,0.0001778,53.2177,344.8333,101.5186,258.6006,2.157e-05,5.5e-07,0.0,0 STARLINK-5144,1 54072U 22136X   24157.92886221  .00000055  00000-0  21570-4 0  9998,2 54072  53.2177 344.8333 0001778 101.5186 258.6006 15.08836469 89967,6917.891,95.438,540.986,538.526,0.0
54072.0,STARLINK-5144,PAYLOAD,2024-06-06 11:00:38,15.08836229,0.0001493,53.214,342.4546,99.0325,261.0837,3.1173e-05,2.08e-06,0.0,0 STARLINK-5144,1 54072U 22136X   24158.45878295  .00000208  00000-0  31173-4 0  9999,2 54072  53.2140 342.4546 0001493  99.0325 261.0837 15.08836229 90042,6917.892,95.438,540.79,538.724,0.0
54072.0,STARLINK-5144,PAYLOAD,2024-06-06 18:57:34,15.0884211,0.0001307,53.2139,340.9681,86.907,273.2072,8.5834e-05,1.078e-05,0.0,0 STARLINK-5144,1 54072U 22136X   24158.78997871  .00001078  00000-0  85834-4 0  9996,2 54072  53.2139 340.9681 0001307  86.9070 273.2072 15.08842110 90579,6917.874,95.437,540.643,538.835,0.0
54072.0,STARLINK-5144,PAYLOAD,2024-06-07 18:48:22,15.08833508,9.42e-05,53.2153,336.5064,87.4696,272.6404,7.7907e-05,9.52e-06,0.0,0 STARLINK-5144,1 54072U 22136X   24159.78358884  .00000952  00000-0  77907-4 0  9994,2 54072  53.2153 336.5064 0000942  87.4696 272.6404 15.08833508 90725,6917.9,95.438,540.417,539.114,0.0
54072.0,STARLINK-5144,PAYLOAD,2024-06-07 21:59:08,15.08835654,0.0001149,53.2131,335.9113,85.5967,274.5157,7.6679e-05,9.33e-06,0.0,0 STARLINK-5144,1 54072U 22136X   24159.91606779  .00000933  00000-0  76679-4 0  9992,2 54072  53.2131 335.9113 0001149  85.5967 274.5157 15.08835654 90268,6917.894,95.438,540.554,538.964,0.0
54072.0,STARLINK-5144,PAYLOAD,2024-06-08 04:20:40,15.08839027,0.0001359,53.2151,334.7237,88.5424,271.5724,0.00010874,1.443e-05,0.0,0 STARLINK-5144,1 54072U 22136X   24160.18102587  .00001443  00000-0  10874-3 0  9992,2 54072  53.2151 334.7237 0001359  88.5424 271.5724 15.08839027 90308,6917.883,95.438,540.689,538.808,0.0
54072.0,STARLINK-5144,PAYLOAD,2024-06-08 18:39:07,15.08869318,0.000101,53.2144,332.0453,77.5753,282.5352,-0.0001553,-2.761e-05,0.0,0 STARLINK-5144,1 54072U 22136X   24160.77716970 -.00002761  00000-0 -15530-3 0  9994,2 54072  53.2144 332.0453 0001010  77.5753 282.5352 15.08869318 90875,6917.791,95.436,540.354,538.957,0.0
54072.0,STARLINK-5144,PAYLOAD,2024-06-08 21:49:52,15.08892964,0.0001083,53.2137,331.4506,61.7802,298.3299,-0.00045327,-7.505e-05,0.0,0 STARLINK-5144,1 54072U 22136X   24160.90963686 -.00007505  00000-0 -45327-3 0  9995,2 54072  53.2137 331.4506 0001083  61.7802 298.3299 15.08892964 90417,6917.719,95.434,540.333,538.834,0.0
54072.0,STARLINK-5144,PAYLOAD,2024-06-09 04:11:27,15.08843305,0.0001141,53.2197,330.2606,39.8068,320.3008,0.00013902,1.926e-05,0.0,0 STARLINK-5144,1 54072U 22136X   24161.17462104  .00001926  00000-0  13902-3 0  9997,2 54072  53.2197 330.2606 0001141  39.8068 320.3008 15.08843305 90932,6917.87,95.437,540.525,538.946,0.0
54072.0,STARLINK-5144,PAYLOAD,2024-06-09 12:08:24,15.08821727,0.0001218,53.2135,328.7749,71.2081,288.9043,-7.9303e-05,-1.549e-05,0.0,0 STARLINK-5144,1 54072U 22136X   24161.50584221 -.00001549  00000-0 -79303-4 0  9990,2 54072  53.2135 328.7749 0001218  71.2081 288.9043 15.08821727 90981,6917.936,95.439,540.644,538.959,0.0
54072.0,STARLINK-5144,PAYLOAD,2024-06-09 20:05:19,15.08835548,0.0001163,53.2139,327.2875,77.5033,282.6089,3.6621e-05,2.95e-06,0.0,0 STARLINK-5144,1 54072U 22136X   24161.83703199  .00000295  00000-0  36621-4 0  9994,2 54072  53.2139 327.2875 0001163  77.5033 282.6089 15.08835548 91038,6917.894,95.438,540.564,538.954,0.0
54072.0,STARLINK-5144,PAYLOAD,2024-06-10 04:02:14,15.08834743,0.0001238,53.2141,325.8003,73.4213,286.6915,-5.9869e-05,-1.24e-05,0.0,0 STARLINK-5144,1 54072U 22136X   24162.16822834 -.00001240  00000-0 -59869-4 0  9991,2 54072  53.2141 325.8003 0001238  73.4213 286.6915 15.08834743 90606,6917.896,95.438,540.618,538.905,0.0
